{
  "type": "FeatureCollection",
  "features": [
    {
      "type": "Feature",
      "properties": {
        "norad_id": 29816,
        "name": "FENGYUN 1C DEB",
        "group": "fengyun-1c-debris",
        "lat": -61.735154601270224,
        "lon": -132.73691964556878,
        "alt_km": 856.4325194259145,
        "timestamp": "2025-12-15T22:44:29.199336+00:00",
        "meta_object_name": "FENGYUN 1C DEB",
        "meta_object_id": "1999-025DJ",
        "meta_epoch": "2025-12-15T08:53:28.340160",
        "meta_mean_motion": 14.44329705,
        "meta_eccentricity": 0.02377635,
        "meta_inclination": 98.9933,
        "meta_ra_of_asc_node": 209.5217,
        "meta_arg_of_pericenter": 169.2739,
        "meta_mean_anomaly": 6.6277,
        "meta_ephemeris_type": 0,
        "meta_classification_type": "U",
        "meta_norad_cat_id": 29816,
        "meta_element_set_no": 999,
        "meta_rev_at_epoch": 98225,
        "meta_bstar": 0.00073556482,
        "meta_mean_motion_dot": 3.52e-05,
        "meta_mean_motion_ddot": 0,
        "tle_line1": "1 29816U 99025DJ  25349.37046690  .00003520  00000+0  73556-3 0  9997",
        "tle_line2": "2 29816  98.9933 209.5217 0237763 169.2739   6.6277 14.44329705982253"
      },
      "geometry": {
        "type": "Point",
        "coordinates": [
          -132.73691964556878,
          -61.735154601270224
        ]
      }
    },
    {
      "type": "Feature",
      "properties": {
        "norad_id": 29817,
        "name": "FENGYUN 1C DEB",
        "group": "fengyun-1c-debris",
        "lat": -66.11268006013856,
        "lon": 139.13586830703193,
        "alt_km": 856.31753316924,
        "timestamp": "2025-12-15T22:44:29.199346+00:00",
        "meta_object_name": "FENGYUN 1C DEB",
        "meta_object_id": "1999-025DK",
        "meta_epoch": "2025-12-15T06:22:10.346592",
        "meta_mean_motion": 14.14255646,
        "meta_eccentricity": 0.00121475,
        "meta_inclination": 98.5576,
        "meta_ra_of_asc_node": 338.3589,
        "meta_arg_of_pericenter": 8.6619,
        "meta_mean_anomaly": 7.872,
        "meta_ephemeris_type": 0,
        "meta_classification_type": "U",
        "meta_norad_cat_id": 29817,
        "meta_element_set_no": 999,
        "meta_rev_at_epoch": 97431,
        "meta_bstar": 0.00035353322,
        "meta_mean_motion_dot": 6.33e-06,
        "meta_mean_motion_ddot": 0,
        "tle_line1": "1 29817U 99025DK  25349.26539753  .00000633  00000+0  35353-3 0  9998",
        "tle_line2": "2 29817  98.5576 338.3589 0012147   8.6619   7.8720 14.14255646974319"
      },
      "geometry": {
        "type": "Point",
        "coordinates": [
          139.13586830703193,
          -66.11268006013856
        ]
      }
    },
    {
      "type": "Feature",
      "properties": {
        "norad_id": 29818,
        "name": "FENGYUN 1C DEB",
        "group": "fengyun-1c-debris",
        "lat": -48.92654567111729,
        "lon": 36.992858638635624,
        "alt_km": 955.0652499232147,
        "timestamp": "2025-12-15T22:44:29.199356+00:00",
        "meta_object_name": "FENGYUN 1C DEB",
        "meta_object_id": "1999-025DL",
        "meta_epoch": "2025-12-15T05:05:17.464416",
        "meta_mean_motion": 14.04502215,
        "meta_eccentricity": 0.01151404,
        "meta_inclination": 98.721,
        "meta_ra_of_asc_node": 226.4299,
        "meta_arg_of_pericenter": 18.9464,
        "meta_mean_anomaly": 94.3521,
        "meta_ephemeris_type": 0,
        "meta_classification_type": "U",
        "meta_norad_cat_id": 29818,
        "meta_element_set_no": 999,
        "meta_rev_at_epoch": 96844,
        "meta_bstar": 0.00017040865,
        "meta_mean_motion_dot": 2.46e-06,
        "meta_mean_motion_ddot": 0,
        "tle_line1": "1 29818U 99025DL  25349.21200769  .00000246  00000+0  17041-3 0  9990",
        "tle_line2": "2 29818  98.7210 226.4299 0115140  18.9464  94.3521 14.04502215968444"
      },
      "geometry": {
        "type": "Point",
        "coordinates": [
          36.992858638635624,
          -48.92654567111729
        ]
      }
    },
    {
      "type": "Feature",
      "properties": {
        "norad_id": 29819,
        "name": "FENGYUN 1C DEB",
        "group": "fengyun-1c-debris",
        "lat": -45.49776608003623,
        "lon": -17.445637342381502,
        "alt_km": 924.5380466391498,
        "timestamp": "2025-12-15T22:44:29.199367+00:00",
        "meta_object_name": "FENGYUN 1C DEB",
        "meta_object_id": "1999-025DM",
        "meta_epoch": "2025-12-14T21:34:56.229024",
        "meta_mean_motion": 14.02199681,
        "meta_eccentricity": 0.01914977,
        "meta_inclination": 98.7325,
        "meta_ra_of_asc_node": 332.5518,
        "meta_arg_of_pericenter": 61.0526,
        "meta_mean_anomaly": 6.1861,
        "meta_ephemeris_type": 0,
        "meta_classification_type": "U",
        "meta_norad_cat_id": 29819,
        "meta_element_set_no": 999,
        "meta_rev_at_epoch": 96650,
        "meta_bstar": 0.00048379117,
        "meta_mean_motion_dot": 8.29e-06,
        "meta_mean_motion_ddot": 0,
        "tle_line1": "1 29819U 99025DM  25348.89926191  .00000829  00000+0  48379-3 0  9993",
        "tle_line2": "2 29819  98.7325 332.5518 0191497  61.0526   6.1861 14.02199681966502"
      },
      "geometry": {
        "type": "Point",
        "coordinates": [
          -17.445637342381502,
          -45.49776608003623
        ]
      }
    },
    {
      "type": "Feature",
      "properties": {
        "norad_id": 29820,
        "name": "FENGYUN 1C DEB",
        "group": "fengyun-1c-debris",
        "lat": -58.50384992856756,
        "lon": 11.601311851490934,
        "alt_km": 875.004143800853,
        "timestamp": "2025-12-15T22:44:29.199377+00:00",
        "meta_object_name": "FENGYUN 1C DEB",
        "meta_object_id": "1999-025DN",
        "meta_epoch": "2025-12-14T23:21:44.987904",
        "meta_mean_motion": 14.02608803,
        "meta_eccentricity": 0.00721929,
        "meta_inclination": 98.8319,
        "meta_ra_of_asc_node": 355.9572,
        "meta_arg_of_pericenter": 231.4618,
        "meta_mean_anomaly": 192.1578,
        "meta_ephemeris_type": 0,
        "meta_classification_type": "U",
        "meta_norad_cat_id": 29820,
        "meta_element_set_no": 999,
        "meta_rev_at_epoch": 96591,
        "meta_bstar": 0.00069352173,
        "meta_mean_motion_dot": 1.051e-05,
        "meta_mean_motion_ddot": 0,
        "tle_line1": "1 29820U 99025DN  25348.97343736  .00001051  00000+0  69352-3 0  9994",
        "tle_line2": "2 29820  98.8319 355.9572 0072192 231.4618 192.1578 14.02608803965918"
      },
      "geometry": {
        "type": "Point",
        "coordinates": [
          11.601311851490934,
          -58.50384992856756
        ]
      }
    },
    {
      "type": "Feature",
      "properties": {
        "norad_id": 29821,
        "name": "FENGYUN 1C DEB",
        "group": "fengyun-1c-debris",
        "lat": 79.6144927687114,
        "lon": -13.568960854577483,
        "alt_km": 603.7139658410279,
        "timestamp": "2025-12-15T22:44:29.199387+00:00",
        "meta_object_name": "FENGYUN 1C DEB",
        "meta_object_id": "1999-025DP",
        "meta_epoch": "2025-12-14T14:43:29.253792",
        "meta_mean_motion": 14.11082019,
        "meta_eccentricity": 0.03762393,
        "meta_inclination": 98.8742,
        "meta_ra_of_asc_node": 43.5901,
        "meta_arg_of_pericenter": 115.4055,
        "meta_mean_anomaly": 38.1502,
        "meta_ephemeris_type": 0,
        "meta_classification_type": "U",
        "meta_norad_cat_id": 29821,
        "meta_element_set_no": 999,
        "meta_rev_at_epoch": 96537,
        "meta_bstar": 0.00079310634,
        "meta_mean_motion_dot": 2.736e-05,
        "meta_mean_motion_ddot": 0,
        "tle_line1": "1 29821U 99025DP  25348.61353303  .00002736  00000+0  79311-3 0  9994",
        "tle_line2": "2 29821  98.8742  43.5901 0376239 115.4055  38.1502 14.11082019965371"
      },
      "geometry": {
        "type": "Point",
        "coordinates": [
          -13.568960854577483,
          79.6144927687114
        ]
      }
    },
    {
      "type": "Feature",
      "properties": {
        "norad_id": 29827,
        "name": "FENGYUN 1C DEB",
        "group": "fengyun-1c-debris",
        "lat": -11.63941572507308,
        "lon": 159.27849557817794,
        "alt_km": 833.2403977882677,
        "timestamp": "2025-12-15T22:44:29.199397+00:00",
        "meta_object_name": "FENGYUN 1C DEB",
        "meta_object_id": "1999-025DV",
        "meta_epoch": "2025-12-15T05:14:26.380032",
        "meta_mean_motion": 14.216912,
        "meta_eccentricity": 0.00249051,
        "meta_inclination": 98.6025,
        "meta_ra_of_asc_node": 340.3546,
        "meta_arg_of_pericenter": 315.1345,
        "meta_mean_anomaly": 106.7707,
        "meta_ephemeris_type": 0,
        "meta_classification_type": "U",
        "meta_norad_cat_id": 29827,
        "meta_element_set_no": 999,
        "meta_rev_at_epoch": 97898,
        "meta_bstar": 0.00035664524,
        "meta_mean_motion_dot": 7.43e-06,
        "meta_mean_motion_ddot": 0,
        "tle_line1": "1 29827U 99025DV  25349.21836088  .00000743  00000+0  35665-3 0  9993",
        "tle_line2": "2 29827  98.6025 340.3546 0024905 315.1345 106.7707 14.21691200978982"
      },
      "geometry": {
        "type": "Point",
        "coordinates": [
          159.27849557817794,
          -11.63941572507308
        ]
      }
    }
  ]
}